SPAWAR-CAL-O            
1 43766U 18099J   26068.73975788  .00021069  00000+0  69663-3 0  9999
2 43766  97.4452 132.0993 0007239 285.0670  74.9770 15.31356755398280
STARLINK-1661           
1 46355U 20062AG  26068.14213265  .00016603  00000+0  57075-3 0  9991
2 46355  53.1612  13.5256 0001035  95.5841 264.5278 15.30239796304316
