[{"OBJECT_NAME":"SPAWAR-CAL-O","OBJECT_ID":"2018-099J","EPOCH":"2026-03-09T17:45:15.080832","MEAN_MOTION":15.31356755,"ECCENTRICITY":0.00072392,"INCLINATION":97.4452,"RA_OF_ASC_NODE":132.0993,"ARG_OF_PERICENTER":285.067,"MEAN_ANOMALY":74.977,"EPHEMERIS_TYPE":0,"CLASSIFICATION_TYPE":"U","NORAD_CAT_ID":43766,"ELEMENT_SET_NO":999,"REV_AT_EPOCH":39828,"BSTAR":0.00069663212,"MEAN_MOTION_DOT":0.00021069,"MEAN_MOTION_DDOT":0},{"OBJECT_NAME":"STARLINK-1661","OBJECT_ID":"2020-062AG","EPOCH":"2026-03-09T03:24:40.260960","MEAN_MOTION":15.30239796,"ECCENTRICITY":0.00010357,"INCLINATION":53.1612,"RA_OF_ASC_NODE":13.5256,"ARG_OF_PERICENTER":95.5841,"MEAN_ANOMALY":264.5278,"EPHEMERIS_TYPE":0,"CLASSIFICATION_TYPE":"U","NORAD_CAT_ID":46355,"ELEMENT_SET_NO":999,"REV_AT_EPOCH":30431,"BSTAR":0.0005707499,"MEAN_MOTION_DOT":0.00016603,"MEAN_MOTION_DDOT":0}]
